{"type": "FeatureCollection", "features": [ {"type": "Feature", "properties": {"norad_id": 42987, "name": "SKYSAT-C11", "group": "resource", "lat": 19.64653795069003, "lon": 134.63108050540953, "alt_km": 422.6399770273274, "timestamp": "2025-12-25T11:37:44.079232+00:00", "meta": {"OBJECT_NAME": "SKYSAT-C11", "OBJECT_ID": "2017-068A", "EPOCH": "2025-12-24T21:34:50.650176", "MEAN_MOTION": 15.4796518, "ECCENTRICITY": 0.0001116, "INCLINATION": 97.4153, "RA_OF_ASC_NODE": 136.6958, "ARG_OF_PERICENTER": 96.4287, "MEAN_ANOMALY": 263.709, "EPHEMERIS_TYPE": 0, "CLASSIFICATION_TYPE": "U", "NORAD_CAT_ID": 42987, "ELEMENT_SET_NO": 999, "REV_AT_EPOCH": 45619, "BSTAR": 0.00045752, "MEAN_MOTION_DOT": 0.00023827, "MEAN_MOTION_DDOT": 0}, "tle": {"line1": "1 42987U 17068A   25358.89919734  .00023827  00000+0  45752-3 0  9992", "line2": "2 42987  97.4153 136.6958 0001116  96.4287 263.7090 15.47965180456192"}}, "geometry": {"type": "Point", "coordinates": [134.63108050540953, 19.64653795069003]}}, {"type": "Feature", "properties": {"norad_id": 42988, "name": "SKYSAT-C10", "group": "resource", "lat": 70.35437056578071, "lon": -28.193650113642345, "alt_km": 460.39101098327046, "timestamp": "2025-12-25T11:37:44.079242+00:00", "meta": {"OBJECT_NAME": "SKYSAT-C10", "OBJECT_ID": "2017-068B", "EPOCH": "2025-12-24T19:29:00.783168", "MEAN_MOTION": 15.32071049, "ECCENTRICITY": 0.00043105, "INCLINATION": 97.4272, "RA_OF_ASC_NODE": 129.6977, "ARG_OF_PERICENTER": 75.127, "MEAN_ANOMALY": 285.0448, "EPHEMERIS_TYPE": 0, "CLASSIFICATION_TYPE": "U", "NORAD_CAT_ID": 42988, "ELEMENT_SET_NO": 999, "REV_AT_EPOCH": 45564, "BSTAR": 0.00040464637, "MEAN_MOTION_DOT": 0.00012461, "MEAN_MOTION_DDOT": 0}, "tle": {"line1": "1 42988U 17068B   25358.81181462  .00012461  00000+0  40465-3 0  9992", "line2": "2 42988  97.4272 129.6977 0004310  75.1270 285.0448 15.32071049455642"}}, "geometry": {"type": "Point", "coordinates": [-28.193650113642345, 70.35437056578071]}}, {"type": "Feature", "properties": {"norad_id": 42989, "name": "SKYSAT-C9", "group": "resource", "lat": 38.44963191494974, "lon": -44.21945882355746, "alt_km": 454.6348789857693, "timestamp": "2025-12-25T11:37:44.079252+00:00", "meta": {"OBJECT_NAME": "SKYSAT-C9", "OBJECT_ID": "2017-068C", "EPOCH": "2025-12-24T20:56:58.064064", "MEAN_MOTION": 15.36350651, "ECCENTRICITY": 0.001027, "INCLINATION": 97.4196, "RA_OF_ASC_NODE": 129.2247, "ARG_OF_PERICENTER": 48.6623, "MEAN_ANOMALY": 311.5503, "EPHEMERIS_TYPE": 0, "CLASSIFICATION_TYPE": "U", "NORAD_CAT_ID": 42989, "ELEMENT_SET_NO": 999, "REV_AT_EPOCH": 45594, "BSTAR": 0.00039865, "MEAN_MOTION_DOT": 0.00014082, "MEAN_MOTION_DDOT": 0}, "tle": {"line1": "1 42989U 17068C   25358.87289426  .00014082  00000+0  39865-3 0  9991", "line2": "2 42989  97.4196 129.2247 0010270  48.6623 311.5503 15.36350651455946"}}, "geometry": {"type": "Point", "coordinates": [-44.21945882355746, 38.44963191494974]}}, {"type": "Feature", "properties": {"norad_id": 42990, "name": "SKYSAT-C8", "group": "resource", "lat": -32.31415497920906, "lon": 134.27673550998435, "alt_km": 472.126418596662, "timestamp": "2025-12-25T11:37:44.079262+00:00", "meta": {"OBJECT_NAME": "SKYSAT-C8", "OBJECT_ID": "2017-068D", "EPOCH": "2025-12-24T20:06:25.740288", "MEAN_MOTION": 15.33182235, "ECCENTRICITY": 9.448e-05, "INCLINATION": 97.4288, "RA_OF_ASC_NODE": 128.8929, "ARG_OF_PERICENTER": 271.5017, "MEAN_ANOMALY": 88.6117, "EPHEMERIS_TYPE": 0, "CLASSIFICATION_TYPE": "U", "NORAD_CAT_ID": 42990, "ELEMENT_SET_NO": 999, "REV_AT_EPOCH": 45556, "BSTAR": 0.00038956306, "MEAN_MOTION_DOT": 0.00012417, "MEAN_MOTION_DDOT": 0}, "tle": {"line1": "1 42990U 17068D   25358.83779792  .00012417  00000+0  38956-3 0  9999", "line2": "2 42990  97.4288 128.8929 0000944 271.5017  88.6117 15.33182235455562"}}, "geometry": {"type": "Point", "coordinates": [134.27673550998435, -32.31415497920906]}}, {"type": "Feature", "properties": {"norad_id": 42991, "name": "SKYSAT-C7", "group": "resource", "lat": 24.19140846142393, "lon": -46.066066255731414, "alt_km": 471.104636036348, "timestamp": "2025-12-25T11:37:44.079272+00:00", "meta": {"OBJECT_NAME": "SKYSAT-C7", "OBJECT_ID": "2017-068E", "EPOCH": "2025-12-24T22:25:01.461216", "MEAN_MOTION": 15.32579579, "ECCENTRICITY": 0.0006842, "INCLINATION": 97.4295, "RA_OF_ASC_NODE": 130.0206, "ARG_OF_PERICENTER": 18.698, "MEAN_ANOMALY": 341.4512, "EPHEMERIS_TYPE": 0, "CLASSIFICATION_TYPE": "U", "NORAD_CAT_ID": 42991, "ELEMENT_SET_NO": 999, "REV_AT_EPOCH": 45564, "BSTAR": 0.00037999, "MEAN_MOTION_DOT": 0.00011889, "MEAN_MOTION_DDOT": 0}, "tle": {"line1": "1 42991U 17068E   25358.93404469  .00011889  00000+0  37999-3 0  9995", "line2": "2 42991  97.4295 130.0206 0006842  18.6980 341.4512 15.32579579455644"}}, "geometry": {"type": "Point", "coordinates": [-46.066066255731414, 24.19140846142393]}}, {"type": "Feature", "properties": {"norad_id": 42992, "name": "SKYSAT-C6", "group": "resource", "lat": -53.23579579132911, "lon": -59.06209177849662, "alt_km": 480.8857031308071, "timestamp": "2025-12-25T11:37:44.079282+00:00", "meta": {"OBJECT_NAME": "SKYSAT-C6", "OBJECT_ID": "2017-068F", "EPOCH": "2025-12-24T20:30:02.163744", "MEAN_MOTION": 15.31732317, "ECCENTRICITY": 0.0004766, "INCLINATION": 97.4329, "RA_OF_ASC_NODE": 130.3693, "ARG_OF_PERICENTER": 49.5424, "MEAN_ANOMALY": 310.6233, "EPHEMERIS_TYPE": 0, "CLASSIFICATION_TYPE": "U", "NORAD_CAT_ID": 42992, "ELEMENT_SET_NO": 999, "REV_AT_EPOCH": 45561, "BSTAR": 0.00038047, "MEAN_MOTION_DOT": 0.00011588, "MEAN_MOTION_DDOT": 0}, "tle": {"line1": "1 42992U 17068F   25358.85419171  .00011588  00000+0  38047-3 0  9994", "line2": "2 42992  97.4329 130.3693 0004766  49.5424 310.6233 15.31732317455610"}}, "geometry": {"type": "Point", "coordinates": [-59.06209177849662, -53.23579579132911]}}, {"type": "Feature", "properties": {"norad_id": 43111, "name": "CARTOSAT-2F", "group": "resource", "lat": 45.59939279047017, "lon": -115.4275121910859, "alt_km": 503.2238280576439, "timestamp": "2025-12-25T11:37:44.079292+00:00", "meta": {"OBJECT_NAME": "CARTOSAT-2F", "OBJECT_ID": "2018-004A", "EPOCH": "2025-12-25T04:43:08.299776", "MEAN_MOTION": 15.1924094, "ECCENTRICITY": 0.0001601, "INCLINATION": 97.4296, "RA_OF_ASC_NODE": 56.6317, "ARG_OF_PERICENTER": 111.9624, "MEAN_ANOMALY": 248.1781, "EPHEMERIS_TYPE": 0, "CLASSIFICATION_TYPE": "U", "NORAD_CAT_ID": 43111, "ELEMENT_SET_NO": 999, "REV_AT_EPOCH": 44091, "BSTAR": 0.00019674, "MEAN_MOTION_DOT": 4.078e-05, "MEAN_MOTION_DDOT": 0}, "tle": {"line1": "1 43111U 18004A   25359.19662384  .00004078  00000+0  19674-3 0  9994", "line2": "2 43111  97.4296  56.6317 0001601 111.9624 248.1781 15.19240940440913"}}, "geometry": {"type": "Point", "coordinates": [-115.4275121910859, 45.59939279047017]}}, {"type": "Feature", "properties": {"norad_id": 43259, "name": "GAOFEN-1 02", "group": "resource", "lat": 77.95810332291663, "lon": -80.97737266871027, "alt_km": 632.6975259959145, "timestamp": "2025-12-25T11:37:44.079302+00:00", "meta": {"OBJECT_NAME": "GAOFEN-1 02", "OBJECT_ID": "2018-031A", "EPOCH": "2025-12-25T04:40:34.615776", "MEAN_MOTION": 14.76440512, "ECCENTRICITY": 0.0002646, "INCLINATION": 98.0785, "RA_OF_ASC_NODE": 56.9876, "ARG_OF_PERICENTER": 171.6693, "MEAN_ANOMALY": 188.4561, "EPHEMERIS_TYPE": 0, "CLASSIFICATION_TYPE": "U", "NORAD_CAT_ID": 43259, "ELEMENT_SET_NO": 999, "REV_AT_EPOCH": 41702, "BSTAR": 0.00017833, "MEAN_MOTION_DOT": 1.188e-05, "MEAN_MOTION_DDOT": 0}, "tle": {"line1": "1 43259U 18031A   25359.19484509  .00001188  00000+0  17833-3 0  9992", "line2": "2 43259  98.0785  56.9876 0002646 171.6693 188.4561 14.76440512417025"}}, "geometry": {"type": "Point", "coordinates": [-80.97737266871027, 77.95810332291663]}}, {"type": "Feature", "properties": {"norad_id": 43260, "name": "GAOFEN-1 03", "group": "resource", "lat": -34.82120820486592, "lon": -128.51615724103732, "alt_km": 645.8275976450859, "timestamp": "2025-12-25T11:37:44.079312+00:00", "meta": {"OBJECT_NAME": "GAOFEN-1 03", "OBJECT_ID": "2018-031B", "EPOCH": "2025-12-25T04:09:05.205888", "MEAN_MOTION": 14.76461494, "ECCENTRICITY": 0.0001738, "INCLINATION": 98.0781, "RA_OF_ASC_NODE": 56.8417, "ARG_OF_PERICENTER": 255.0335, "MEAN_ANOMALY": 105.0682, "EPHEMERIS_TYPE": 0, "CLASSIFICATION_TYPE": "U", "NORAD_CAT_ID": 43260, "ELEMENT_SET_NO": 999, "REV_AT_EPOCH": 41701, "BSTAR": 0.00014183, "MEAN_MOTION_DOT": 9.35e-06, "MEAN_MOTION_DDOT": 0}, "tle": {"line1": "1 43260U 18031B   25359.17297692  .00000935  00000+0  14183-3 0  9991", "line2": "2 43260  98.0781  56.8417 0001738 255.0335 105.0682 14.76461494417014"}}, "geometry": {"type": "Point", "coordinates": [-128.51615724103732, -34.82120820486592]}}, {"type": "Feature", "properties": {"norad_id": 43262, "name": "GAOFEN-1 04", "group": "resource", "lat": -15.871291130495852, "lon": 59.63811448911589, "alt_km": 645.3735117251508, "timestamp": "2025-12-25T11:37:44.079322+00:00", "meta": {"OBJECT_NAME": "GAOFEN-1 04", "OBJECT_ID": "2018-031D", "EPOCH": "2025-12-25T05:11:42.980352", "MEAN_MOTION": 14.7643222, "ECCENTRICITY": 5.22e-05, "INCLINATION": 98.0787, "RA_OF_ASC_NODE": 57.0556, "ARG_OF_PERICENTER": 66.1497, "MEAN_ANOMALY": 293.9767, "EPHEMERIS_TYPE": 0, "CLASSIFICATION_TYPE": "U", "NORAD_CAT_ID": 43262, "ELEMENT_SET_NO": 999, "REV_AT_EPOCH": 41701, "BSTAR": 0.00019219, "MEAN_MOTION_DOT": 1.285e-05, "MEAN_MOTION_DDOT": 0}, "tle": {"line1": "1 43262U 18031D   25359.21646968  .00001285  00000+0  19219-3 0  9996", "line2": "2 43262  98.0787  57.0556 0000522  66.1497 293.9767 14.76432220417015"}}, "geometry": {"type": "Point", "coordinates": [59.63811448911589, -15.871291130495852]}}]}